TDRS 3                  
1 19548U 88091B   20113.87057744 -.00000299  00000-0  00000-0 0  9993
2 19548  14.2057 357.9166 0037382 325.3344 152.4773  1.00266494102882
HST                     
1 20580U 90037B   20113.88551891  .00000497  00000-0  19265-4 0  9993
2 20580  28.4704 327.1933 0002639 210.4923 243.1992 15.09374335447567
TDRS 5                  
1 21639U 91054B   20113.76326389  .00000086  00000-0  00000-0 0  9995
2 21639  14.3040  11.2030 0029128   4.8831 302.4737  1.00266527105188
TDRS 6                  
1 22314U 93003B   20113.87027650 -.00000293  00000-0  00000-0 0  9994
2 22314  14.0264  14.3296 0008934  56.6462  47.5141  1.00264288 99921
TDRS 7                  
1 23613U 95035B   20113.86388569 -.00000201  00000-0  00000-0 0  9991
2 23613  14.2084   5.0212 0033098  26.0165 216.1490  1.00274906 90729
ISS (ZARYA)             
1 25544U 98067A   20113.89738775  .00001317  00000-0  31724-4 0  9994
2 25544  51.6435 262.1138 0001684 177.7541 317.3974 15.49303487223443
LANDSAT 7               
1 25682U 99020A   20113.79324674  .00000006  00000-0  11033-4 0  9990
2 25682  98.0864 178.0969 0001638  70.4020 289.7348 14.57174456118130
TERRA                   
1 25994U 99068A   20113.82290371 -.00000025  00000-0  44095-5 0  9995
2 25994  98.2151 188.8740 0001025  88.5226 271.6057 14.57125174 82210
TDRS 8                  
1 26388U 00034A   20113.79701641 -.00000224  00000-0  00000-0 0  9995
2 26388   9.1473  47.9266 0018978 319.1181 220.0524  1.00264079 72658
TIMED                   
1 26998U 01055B   20113.73603349  .00000101  00000-0  15001-4 0  9990
2 26998  74.0742  44.1126 0001227 212.9409 147.1695 14.88183638996206
TDRS 9                  
1 27389U 02011A   20113.83871517 -.00000281  00000-0  00000-0 0  9992
2 27389   7.3784  67.9305 0026581 283.1902  99.8500  1.00267475 67924
AQUA                    
1 27424U 02022A   20113.86040076  .00000098  00000-0  31803-4 0  9999
2 27424  98.2055  55.3026 0002201 120.8713 333.3348 14.57116709955779
TDRS 10                 
1 27566U 02055A   20113.76182920  .00000094  00000-0  00000+0 0  9992
2 27566   6.8123  53.8756 0010112 305.2840 315.1836  1.00269866 63698
SORCE                   
1 27651U 03004A   20113.84295637  .00000075  00000-0  22034-4 0  9996
2 27651  39.9955 280.1490 0023507 344.7417  15.2661 14.89104347935902
AURA                    
1 28376U 04026A   20113.84795242  .00000095  00000-0  31101-4 0  9990
2 28376  98.2048  57.4476 0001573  86.1944 273.9434 14.57118613838828
SWIFT                   
1 28485U 04047A   20113.21331144  .00000927  00000-0  32968-4 0  9998
2 28485  20.5573  58.5806 0011294  66.7115 293.4506 15.04592826844991
THEMIS A                
1 30580U 07004A   20112.73702409 -.00000465  00000-0  00000-0 0  9991
2 30580  13.9124  51.7965 8414574  19.5081 358.4454  0.87837791 21543
THEMIS D                
1 30797U 07004D   20112.76587837 -.00000428  00000-0  34643-1 0  9990
2 30797  12.5488  31.5794 8372509  41.4468 357.1609  0.87904633 45736
THEMIS E                
1 30798U 07004E   20112.79364225 -.00000462  00000-0  00000-0 0  9995
2 30798  11.4799  42.1370 8373331  33.5661 357.6323  0.87843830 46166
AIM                     
1 31304U 07015A   20113.70697771  .00000811  00000-0  49249-4 0  9997
2 31304  97.9148 354.3857 0005022 172.3697 187.7610 15.13527029712252
FGRST (GLAST)           
1 33053U 08029A   20113.38570927  .00000473  00000-0  10265-4 0  9993
2 33053  25.5820 122.1885 0012672  78.7606 281.4353 15.11328658654828
WISE                    
1 36119U 09071A   20113.62122014  .00000836  00000-0  31314-4 0  9995
2 36119  97.3344 150.6138 0001883 179.7945 180.3297 15.30036463575264
TDRS 11                 
1 39070U 13004A   20113.81629556  .00000074  00000-0  00000-0 0  9997
2 39070   3.9131 331.8540 0006029  40.5259 318.3655  1.00270435 26454
TDRS 12                 
1 39504U 14004A   20113.86584601 -.00000276  00000-0  00000-0 0  9991
2 39504   4.7257 338.1003 0001926 112.2029  31.6553  1.00265643 21756
GPM-CORE                
1 39574U 14009C   20113.86260727  .00002641  00000-0  42562-4 0  9993
2 39574  65.0069 340.6986 0011581 287.9653  72.0230 15.55586663349390
MMS 1                   
1 40482U 15011A   20111.32331903 -.00000001  00000-0  00000+0 0  9996
2 40482  26.7581 120.3298 8686940  19.8710 219.2124  0.28580409 11044
MMS 2                   
1 40483U 15011B   20110.08333333 -.00000059  00000-0  00000+0 0  9991
2 40483  26.7644 120.3695 8692042  19.8261  91.7200  0.28585787 11027
MMS 3                   
1 40484U 15011C   20110.08333333 -.00000059  00000-0  00000+0 0  9992
2 40484  26.7831 120.3608 8694015  19.8320  91.6985  0.28587107 11025
MMS 4                   
1 40485U 15011D   20110.53798178 -.00000033  00000-0  00000+0 0  9997
2 40485  26.7560 120.3506 8688751  19.8407 138.4632  0.28592214 11022
TDRS 13                 
1 42915U 17047A   20113.84883455 -.00000106  00000-0  00000-0 0  9990
2 42915   5.6617 330.2019 0017022  87.9476  87.4188  1.00273169  9823
JPSS-1                  
1 43013U 17073A   20113.88435057 -.00000014  00000-0  14035-4 0  9999
2 43013  98.7145  52.7034 0001388  99.9566 260.1767 14.19551906125774
